DUPLEX                  
1 66906U 98067XS  26086.11077728  .00030995  00000+0  42023-3 0  9991
2 66906  51.6307 342.2411 0002868 191.8140 168.2785 15.57379758 17840
ISS OBJECT XT           
1 66907U 98067XT  26086.06187320  .00219962  00000+0  13800-2 0  9999
2 66907  51.6250 336.6305 0005739 192.2616 167.8244 15.75548676 17910
ISS OBJECT XU           
1 66908U 98067XU  26086.05835702  .00230149  00000+0  14272-2 0  9997
2 66908  51.6238 336.6028 0005927 191.8620 168.2241 15.75783311 17917
SILVERSAT               
1 66909U 98067XV  26086.08110740  .00319643  00000+0  15698-2 0  9999
2 66909  51.6220 335.2430 0006733 198.1524 161.9239 15.80729588 17931
ISS OBJECT XW           
1 66910U 98067XW  26086.06742865  .00194306  00000+0  12968-2 0  9992
2 66910  51.6237 336.6606 0006161 190.5298 169.5573 15.74199990 17914
ISS OBJECT XX           
1 66911U 98067XX  26086.09273925  .00470858  00000+0  16974-2 0  9992
2 66911  51.6197 333.7874 0008389 202.2117 157.8525 15.86861500 17946
ISS OBJECT XY           
1 66912U 98067XY  26086.07333694  .00112875  00000+0  10222-2 0  9993
2 66912  51.6273 338.9792 0004188 189.6514 170.4402 15.67194641 17871
KNACKSAT-2              
1 67683U 98067XZ  26085.97818081  .00042420  00000+0  66435-3 0  9991
2 67683  51.6326 345.8555 0009919 248.4821 111.5112 15.53246131  7478
CORAL                   
1 67684U 98067YA  26086.10770136  .00096256  00000+0  12827-2 0  9997
2 67684  51.6314 344.4708 0012569 238.1996 121.7773 15.57249768  7508
GXIBA-1                 
1 67685U 98067YB  26085.96881885  .00046603  00000+0  71441-3 0  9994
2 67685  51.6322 345.7931 0011841 245.2772 114.6986 15.53770911  7471
UITMSAT-2               
1 67686U 98067YC  26086.08387618  .00061183  00000+0  90429-3 0  9991
2 67686  51.6322 345.0642 0008966 216.5777 143.4602 15.54689548  7497
HMU-SAT2                
1 67687U 98067YD  26085.97344486  .00047602  00000+0  73714-3 0  9993
2 67687  51.6328 345.8268 0008474 219.6205 140.4167 15.53521271  7399
LEOPARD                 
1 67688U 98067YE  26086.09006899  .00052925  00000+0  79602-3 0  9997
2 67688  51.6328 345.1054 0008650 217.3181 142.7210 15.54275853  7410
CREW DRAGON 12          
1 67796U 26031A   26086.13218664  .00012923  00000+0  24583-3 0  9991
2 67796  51.6343 346.1324 0006239 237.1062 122.9326 15.48575012558970
PROGRESS-MS 33          
1 68319U 26058A   26086.13218664  .00012923  00000+0  24583-3 0  9992
2 68319  51.6343 346.1324 0006239 237.1062 122.9326 15.48575012   334
